{"fetched_at":"2026-07-07T07:58:14.001Z","source":"https://celestrak.org/NORAD/elements/gp.php?GROUP=spire&FORMAT=JSON","constellation":"spire","records":[{"OBJECT_NAME":"LEMUR-1","OBJECT_ID":"2014-033AL","EPOCH":"2026-07-06T08:37:15.113280","CLASSIFICATION_TYPE":"U","MEAN_MOTION":14.85319108,"ECCENTRICITY":0.00485182,"INCLINATION":97.7901,"RA_OF_ASC_NODE":336.741,"ARG_OF_PERICENTER":16.9645,"MEAN_ANOMALY":343.3179,"EPHEMERIS_TYPE":0,"NORAD_CAT_ID":40044,"ELEMENT_SET_NO":999,"REV_AT_EPOCH":64831,"BSTAR":0.00025242618,"MEAN_MOTION_DOT":0.0000216,"MEAN_MOTION_DDOT":0},{"OBJECT_NAME":"LEMUR-2-GREENBERG","OBJECT_ID":"2017-042N","EPOCH":"2026-07-06T18:02:59.312832","CLASSIFICATION_TYPE":"U","MEAN_MOTION":15.31966739,"ECCENTRICITY":0.0007188,"INCLINATION":97.3832,"RA_OF_ASC_NODE":8.2953,"ARG_OF_PERICENTER":295.933,"MEAN_ANOMALY":64.117,"EPHEMERIS_TYPE":0,"NORAD_CAT_ID":42837,"ELEMENT_SET_NO":999,"REV_AT_EPOCH":49138,"BSTAR":0.00044885,"MEAN_MOTION_DOT":0.00013796,"MEAN_MOTION_DDOT":0},{"OBJECT_NAME":"LEMUR-2-ANDIS","OBJECT_ID":"2017-042P","EPOCH":"2026-07-06T17:39:02.431584","CLASSIFICATION_TYPE":"U","MEAN_MOTION":15.3567897,"ECCENTRICITY":0.0007107,"INCLINATION":97.3685,"RA_OF_ASC_NODE":8.5318,"ARG_OF_PERICENTER":293.7973,"MEAN_ANOMALY":66.2525,"EPHEMERIS_TYPE":0,"NORAD_CAT_ID":42838,"ELEMENT_SET_NO":999,"REV_AT_EPOCH":49145,"BSTAR":0.00051664,"MEAN_MOTION_DOT":0.00017878,"MEAN_MOTION_DDOT":0},{"OBJECT_NAME":"LEMUR-2-MONSON","OBJECT_ID":"2017-042Q","EPOCH":"2026-07-06T17:42:49.156416","CLASSIFICATION_TYPE":"U","MEAN_MOTION":15.28600277,"ECCENTRICITY":0.0005141,"INCLINATION":97.4095,"RA_OF_ASC_NODE":8.2234,"ARG_OF_PERICENTER":284.6835,"MEAN_ANOMALY":75.3834,"EPHEMERIS_TYPE":0,"NORAD_CAT_ID":42839,"ELEMENT_SET_NO":999,"REV_AT_EPOCH":49115,"BSTAR":0.00041953,"MEAN_MOTION_DOT":0.00011607,"MEAN_MOTION_DDOT":0},{"OBJECT_NAME":"LEMUR-2-FURIAUS","OBJECT_ID":"2017-042R","EPOCH":"2026-07-06T10:22:52.469472","CLASSIFICATION_TYPE":"U","MEAN_MOTION":15.30929761,"ECCENTRICITY":0.00067243,"INCLINATION":97.3781,"RA_OF_ASC_NODE":5.8885,"ARG_OF_PERICENTER":4.0809,"MEAN_ANOMALY":356.0486,"EPHEMERIS_TYPE":0,"NORAD_CAT_ID":42840,"ELEMENT_SET_NO":999,"REV_AT_EPOCH":49115,"BSTAR":0.00062538306,"MEAN_MOTION_DOT":0.00018651,"MEAN_MOTION_DDOT":0},{"OBJECT_NAME":"LEMUR-2-PETERG","OBJECT_ID":"2017-042S","EPOCH":"2026-07-06T11:17:44.245536","CLASSIFICATION_TYPE":"U","MEAN_MOTION":15.34790924,"ECCENTRICITY":0.00028649,"INCLINATION":97.4,"RA_OF_ASC_NODE":12.5429,"ARG_OF_PERICENTER":263.6027,"MEAN_ANOMALY":96.489,"EPHEMERIS_TYPE":0,"NORAD_CAT_ID":42841,"ELEMENT_SET_NO":999,"REV_AT_EPOCH":49139,"BSTAR":0.0007286602,"MEAN_MOTION_DOT":0.00024549,"MEAN_MOTION_DDOT":0},{"OBJECT_NAME":"LEMUR-2-DEMBITZ","OBJECT_ID":"2017-042T","EPOCH":"2026-07-06T10:51:09.921888","CLASSIFICATION_TYPE":"U","MEAN_MOTION":15.30918269,"ECCENTRICITY":0.0005291,"INCLINATION":97.3834,"RA_OF_ASC_NODE":8.9463,"ARG_OF_PERICENTER":313.9812,"MEAN_ANOMALY":46.0993,"EPHEMERIS_TYPE":0,"NORAD_CAT_ID":42842,"ELEMENT_SET_NO":999,"REV_AT_EPOCH":49129,"BSTAR":0.00057818256,"MEAN_MOTION_DOT":0.00017223,"MEAN_MOTION_DDOT":0},{"OBJECT_NAME":"LEMUR-2-ZACHARY","OBJECT_ID":"2017-042W","EPOCH":"2026-07-06T11:30:10.052064","CLASSIFICATION_TYPE":"U","MEAN_MOTION":15.52103423,"ECCENTRICITY":0.00023392,"INCLINATION":97.3592,"RA_OF_ASC_NODE":19.5481,"ARG_OF_PERICENTER":292.4564,"MEAN_ANOMALY":67.644,"EPHEMERIS_TYPE":0,"NORAD_CAT_ID":42845,"ELEMENT_SET_NO":999,"REV_AT_EPOCH":49219,"BSTAR":0.00084327194,"MEAN_MOTION_DOT":0.00051075,"MEAN_MOTION_DDOT":0},{"OBJECT_NAME":"LEMUR-2-AMANDA-SVANTE","OBJECT_ID":"2021-034B","EPOCH":"2026-07-06T04:46:01.886016","CLASSIFICATION_TYPE":"U","MEAN_MOTION":15.3555216,"ECCENTRICITY":0.00040367,"INCLINATION":97.5745,"RA_OF_ASC_NODE":266,"ARG_OF_PERICENTER":164.2126,"MEAN_ANOMALY":195.9244,"EPHEMERIS_TYPE":0,"NORAD_CAT_ID":48269,"ELEMENT_SET_NO":999,"REV_AT_EPOCH":28397,"BSTAR":0.001020665,"MEAN_MOTION_DOT":0.00035315,"MEAN_MOTION_DDOT":0},{"OBJECT_NAME":"LEMUR-2-SPECIAL-K","OBJECT_ID":"2021-034F","EPOCH":"2026-07-06T05:41:36.307392","CLASSIFICATION_TYPE":"U","MEAN_MOTION":15.71456484,"ECCENTRICITY":0.0005773,"INCLINATION":97.5636,"RA_OF_ASC_NODE":275.5626,"ARG_OF_PERICENTER":220.9079,"MEAN_ANOMALY":139.175,"EPHEMERIS_TYPE":0,"NORAD_CAT_ID":48273,"ELEMENT_SET_NO":999,"REV_AT_EPOCH":28467,"BSTAR":0.0018452951,"MEAN_MOTION_DOT":0.00241712,"MEAN_MOTION_DDOT":0},{"OBJECT_NAME":"LEMUR-2-EMBRIONOVIS","OBJECT_ID":"2023-084AQ","EPOCH":"2026-07-06T07:58:45.842592","CLASSIFICATION_TYPE":"U","MEAN_MOTION":15.38065403,"ECCENTRICITY":0.00077014,"INCLINATION":97.6316,"RA_OF_ASC_NODE":332.2754,"ARG_OF_PERICENTER":241.128,"MEAN_ANOMALY":118.9192,"EPHEMERIS_TYPE":0,"NORAD_CAT_ID":56970,"ELEMENT_SET_NO":999,"REV_AT_EPOCH":17062,"BSTAR":0.0003802122,"MEAN_MOTION_DOT":0.00014178,"MEAN_MOTION_DDOT":0},{"OBJECT_NAME":"LEMUR-2-DEVERILL-M-T","OBJECT_ID":"2023-100F","EPOCH":"2026-07-06T15:49:33.182976","CLASSIFICATION_TYPE":"U","MEAN_MOTION":15.40781966,"ECCENTRICITY":0.0004853,"INCLINATION":99.4457,"RA_OF_ASC_NODE":232.0549,"ARG_OF_PERICENTER":334.3234,"MEAN_ANOMALY":25.7764,"EPHEMERIS_TYPE":0,"NORAD_CAT_ID":57391,"ELEMENT_SET_NO":999,"REV_AT_EPOCH":16424,"BSTAR":0.00053549,"MEAN_MOTION_DOT":0.00021851,"MEAN_MOTION_DDOT":0},{"OBJECT_NAME":"LEMUR-2-BASS","OBJECT_ID":"2023-174D","EPOCH":"2026-07-06T18:57:36.837216","CLASSIFICATION_TYPE":"U","MEAN_MOTION":15.43791093,"ECCENTRICITY":0.0007987,"INCLINATION":97.384,"RA_OF_ASC_NODE":272.7845,"ARG_OF_PERICENTER":102.9943,"MEAN_ANOMALY":257.2197,"EPHEMERIS_TYPE":0,"NORAD_CAT_ID":58259,"ELEMENT_SET_NO":999,"REV_AT_EPOCH":14838,"BSTAR":0.00034469,"MEAN_MOTION_DOT":0.00015539,"MEAN_MOTION_DDOT":0},{"OBJECT_NAME":"LEMUR-2-JK0903EM1407","OBJECT_ID":"2023-174CJ","EPOCH":"2026-07-06T17:48:33.319584","CLASSIFICATION_TYPE":"U","MEAN_MOTION":15.52744169,"ECCENTRICITY":0.0004313,"INCLINATION":97.3916,"RA_OF_ASC_NODE":278.7771,"ARG_OF_PERICENTER":60.8659,"MEAN_ANOMALY":299.3025,"EPHEMERIS_TYPE":0,"NORAD_CAT_ID":58336,"ELEMENT_SET_NO":999,"REV_AT_EPOCH":14876,"BSTAR":0.00037988,"MEAN_MOTION_DOT":0.00023414,"MEAN_MOTION_DDOT":0},{"OBJECT_NAME":"LEMUR-2-MJR092620","OBJECT_ID":"2023-174CN","EPOCH":"2026-07-06T17:10:24.674304","CLASSIFICATION_TYPE":"U","MEAN_MOTION":15.45636987,"ECCENTRICITY":0.0006071,"INCLINATION":97.3969,"RA_OF_ASC_NODE":278.1135,"ARG_OF_PERICENTER":58.6351,"MEAN_ANOMALY":301.5491,"EPHEMERIS_TYPE":0,"NORAD_CAT_ID":58340,"ELEMENT_SET_NO":999,"REV_AT_EPOCH":14866,"BSTAR":0.00031298,"MEAN_MOTION_DOT":0.00015007,"MEAN_MOTION_DDOT":0},{"OBJECT_NAME":"LEMUR-2-NIMBUS2000","OBJECT_ID":"2024-022A","EPOCH":"2026-07-06T19:50:45.861216","CLASSIFICATION_TYPE":"U","MEAN_MOTION":15.40859302,"ECCENTRICITY":0.0009558,"INCLINATION":97.4092,"RA_OF_ASC_NODE":38.0827,"ARG_OF_PERICENTER":55.6742,"MEAN_ANOMALY":304.5408,"EPHEMERIS_TYPE":0,"NORAD_CAT_ID":58899,"ELEMENT_SET_NO":999,"REV_AT_EPOCH":13529,"BSTAR":0.00040833,"MEAN_MOTION_DOT":0.00016714,"MEAN_MOTION_DDOT":0}]}
